[{"OBJECT_NAME":"STARLINK-31411","OBJECT_ID":"2024-045E","EPOCH":"2026-03-09T02:15:34.859808","MEAN_MOTION":15.27572093,"ECCENTRICITY":0.00010324,"INCLINATION":43.001,"RA_OF_ASC_NODE":95.6172,"ARG_OF_PERICENTER":269.951,"MEAN_ANOMALY":90.1224,"EPHEMERIS_TYPE":0,"CLASSIFICATION_TYPE":"U","NORAD_CAT_ID":59182,"ELEMENT_SET_NO":999,"REV_AT_EPOCH":11307,"BSTAR":4.640556e-6,"MEAN_MOTION_DOT":-1.34e-6,"MEAN_MOTION_DDOT":0},{"OBJECT_NAME":"HERMES-2","OBJECT_ID":"2025-052AK","EPOCH":"2026-03-09T22:17:00.130272","MEAN_MOTION":15.28021069,"ECCENTRICITY":0.00063399,"INCLINATION":97.4004,"RA_OF_ASC_NODE":324.4926,"ARG_OF_PERICENTER":99.416,"MEAN_ANOMALY":260.7796,"EPHEMERIS_TYPE":0,"CLASSIFICATION_TYPE":"U","NORAD_CAT_ID":63243,"ELEMENT_SET_NO":999,"REV_AT_EPOCH":5485,"BSTAR":0.00034839454,"MEAN_MOTION_DOT":9.456e-5,"MEAN_MOTION_DDOT":0}]
